      2.10          N: GNSS NAV DATA                        RINEX VERSION / TYPE
fic2rin                                 02/09/2024 00:17:57 PGM / RUN BY / DATE
                                                            END OF HEADER
25 24  2  8 20  0  0.0  .487981364131D-03  .125055521494D-11  .000000000000D+00
     .430000000000D+02 -.235937500000D+02  .526414784432D-08 -.195107633850D+01
    -.120885670185D-05  .118225855986D-01  .528618693352D-05  .515360259056D+04
     .417600000000D+06  .182539224625D-06  .191378022808D+01 -.353902578354D-07
     .950638545020D+00  .270156250000D+03  .107348101815D+01 -.816355433052D-08
    -.299298181256D-09  .100000000000D+01  .230000000000D+04  .000000000000D+00
     .240000000000D+01  .000000000000D+00  .558793544769D-08  .430000000000D+02
     .410400000000D+06  .400000000000D+01
28 24  2  8 20  0  0.0 -.124583952129D-03 -.125055521494D-10  .000000000000D+00
     .230000000000D+02  .262500000000D+02  .465947980032D-08 -.261918828965D+01
     .131689012051D-05  .674937386066D-03  .842288136482D-05  .515358568954D+04
     .417600000000D+06 -.391155481339D-07  .848936189028D+00  .279396772385D-07
     .961419404234D+00  .212843750000D+03  .173327695003D+01 -.800283335013D-08
     .720744307608D-09  .100000000000D+01  .230000000000D+04  .000000000000D+00
     .340000000000D+01  .000000000000D+00 -.931322574615D-08  .279000000000D+03
     .410400000000D+06  .400000000000D+01
22 24  2  8 20  0  0.0  .344477593899D-04 -.625277607469D-11  .000000000000D+00
     .164000000000D+03 -.180625000000D+02  .484020161383D-08  .226230651739D+01
    -.925734639168D-06  .145489592105D-01  .651180744171D-05  .515370650864D+04
     .417600000000D+06  .217929482460D-06  .202042512448D+01  .242143869400D-07
     .961662441741D+00  .252156250000D+03 -.114252925493D+01 -.780282501898D-08
    -.659313177326D-09  .100000000000D+01  .230000000000D+04  .000000000000D+00
     .340000000000D+01  .000000000000D+00 -.111758708954D-07  .164000000000D+03
     .410400000000D+06  .400000000000D+01
23 24  2  8 20  0  0.0  .152069609612D-03  .795807864051D-11  .000000000000D+00
     .150000000000D+02 -.886250000000D+02  .426232039990D-08 -.142590448905D+01
    -.460632145405D-05  .398463068996D-02  .692903995514D-06  .515370536995D+04
     .417600000000D+06 -.558793544769D-08 -.124032771894D+01 -.143423676491D-06
     .977355149348D+00  .376750000000D+03 -.296608806714D+01 -.823212861549D-08
    -.195008122871D-09  .100000000000D+01  .230000000000D+04  .000000000000D+00
     .240000000000D+01  .000000000000D+00 -.838190317154D-08  .527000000000D+03
     .410400000000D+06  .400000000000D+01
28 24  2  8 20 29 36.0 -.124605372548D-03 -.125055521494D-10  .000000000000D+00
     .240000000000D+02  .232500000000D+02  .462054960729D-08 -.235979139760D+01
     .125356018543D-05  .674644135870D-03  .841543078423D-05  .515358636284D+04
     .419376000000D+06 -.614672899246D-07  .848921887541D+00  .372529029846D-08
     .961420738416D+00  .213093750000D+03  .173293817332D+01 -.798568977889D-08
     .734316301507D-09  .100000000000D+01  .230000000000D+04  .000000000000D+00
     .240000000000D+01  .000000000000D+00 -.931322574615D-08  .280000000000D+03
     .412200000000D+06  .400000000000D+01
29 24  2  8 19 59 44.0 -.607335008681D-03  .682121026330D-12  .000000000000D+00
     .000000000000D+00  .785312500000D+02  .393409244217D-08  .171188630086D+01
     .417791306973D-05  .258206017315D-02  .124033540487D-04  .515365214920D+04
     .417584000000D+06  .130385160446D-07  .305290364149D+01  .186264514923D-07
     .973280243703D+00  .143375000000D+03  .250864092029D+01 -.759174479807D-08
    -.393944980818D-09  .100000000000D+01  .230000000000D+04  .000000000000D+00
     .240000000000D+01  .000000000000D+00 -.102445483208D-07  .000000000000D+00
     .414600000000D+06  .400000000000D+01
22 24  2  8 19 59 44.0  .344468280673D-04 -.625277607469D-11  .000000000000D+00
     .680000000000D+02 -.180625000000D+02  .484020161383D-08  .225997259837D+01
    -.925734639168D-06  .145489646820D-01  .651180744171D-05  .515370651245D+04
     .417584000000D+06  .217929482460D-06  .202042526200D+01  .223517417908D-07
     .961662463684D+00  .252156250000D+03 -.114252907060D+01 -.780318217672D-08
    -.659313177326D-09  .100000000000D+01  .230000000000D+04  .000000000000D+00
     .240000000000D+01  .000000000000D+00 -.111758708954D-07  .680000000000D+02
     .414600000000D+06  .400000000000D+01
4  24  2  8 21 44 32.0  .286896713078D-03  .943600753089D-11  .000000000000D+00
     .790000000000D+02 -.104875000000D+03  .404409702430D-08  .235267940526D+01
    -.543892383575D-05  .284127809573D-02  .122338533401D-04  .515359383583D+04
     .423872000000D+06 -.242143869400D-07 -.129818049820D+00 -.149011611938D-07
     .964735217780D+00  .146593750000D+03 -.298248912700D+01 -.769389191005D-08
     .135005623526D-09  .100000000000D+01  .230000000000D+04  .000000000000D+00
     .240000000000D+01  .000000000000D+00 -.465661287308D-08  .335000000000D+03
     .416700000000D+06  .400000000000D+01
29 24  2  8 21 59 44.0 -.607329886407D-03  .682121026330D-12  .000000000000D+00
     .800000000000D+01  .855625000000D+02  .394945022474D-08  .276154914161D+01
     .451318919659D-05  .258164794650D-02  .131540000439D-04  .515365462875D+04
     .424784000000D+06 -.167638063431D-07  .305284886105D+01  .465661287308D-07
     .973277481714D+00  .133281250000D+03  .250916665940D+01 -.758317301245D-08
    -.367158150754D-09  .100000000000D+01  .230000000000D+04  .000000000000D+00
     .240000000000D+01  .000000000000D+00 -.102445483208D-07  .800000000000D+01
     .417600000000D+06  .400000000000D+01
22 24  2  8 21 59 44.0  .344016589224D-04 -.625277607469D-11  .000000000000D+00
     .690000000000D+02 -.183750000000D+02  .478127058768D-08 -.297306880939D+01
    -.895932316780D-06  .145483252127D-01  .669062137604D-05  .515370779419D+04
     .424784000000D+06  .115483999252D-06  .202036824623D+01  .229105353355D-06
     .961658325089D+00  .247093750000D+03 -.114250989467D+01 -.777318092704D-08
    -.488948938114D-09  .100000000000D+01  .230000000000D+04  .000000000000D+00
     .240000000000D+01  .000000000000D+00 -.111758708954D-07  .690000000000D+02
     .417600000000D+06  .400000000000D+01
2  24  2  8 22  0  0.0 -.488423276693D-03  .591171556152D-11  .000000000000D+00
     .104000000000D+03  .156812500000D+03  .433410910447D-08  .307764730622D+01
     .820122659206D-05  .162695620675D-01  .441260635853D-05  .515390032578D+04
     .424800000000D+06  .273808836937D-06 -.234265206735D+01  .242143869400D-06
     .967642608004D+00  .293875000000D+03 -.124269130301D+01 -.795890294883D-08
     .265011038773D-09  .100000000000D+01  .230000000000D+04  .000000000000D+00
     .240000000000D+01  .000000000000D+00 -.176951289177D-07  .104000000000D+03
     .417600000000D+06  .400000000000D+01
1  24  2  8 22  0  0.0  .168803147972D-03  .147792889038D-11  .000000000000D+00
     .750000000000D+02  .131343750000D+03  .400195241167D-08  .451219820580D+00
     .706501305103D-05  .126982168294D-01  .372529029846D-05  .515400673294D+04
     .424800000000D+06 -.987201929092D-07 -.223836630190D+01  .143423676491D-06
     .990605390874D+00  .321781250000D+03  .999198769165D+00 -.822427114533D-08
     .182150444440D-09  .100000000000D+01  .230000000000D+04  .000000000000D+00
     .485000000000D+01  .630000000000D+02  .512227416039D-08  .750000000000D+02
     .417600000000D+06  .400000000000D+01
5  24  2  8 22  0  0.0 -.161074567586D-03 -.147792889038D-11  .000000000000D+00
     .600000000000D+02 -.975000000000D+02  .462019244956D-08  .307550036129D+01
    -.500120222569D-05  .566446094308D-02 -.149011611938D-06  .515355698776D+04
     .424800000000D+06  .428408384323D-07 -.125927235153D+01  .186264514923D-07
     .969506598241D+00  .388843750000D+03  .123444421352D+01 -.841892211047D-08
    -.284654714154D-09  .100000000000D+01  .230000000000D+04  .000000000000D+00
     .240000000000D+01  .000000000000D+00 -.111758708954D-07  .600000000000D+02
     .417600000000D+06  .400000000000D+01
3  24  2  8 22  0  0.0  .180752947927D-03  .245563569479D-10  .000000000000D+00
     .550000000000D+02 -.930000000000D+02  .429196449183D-08 -.464302998324D+00
    -.486336648464D-05  .507994787768D-02  .117346644402D-05  .515378386116D+04
     .424800000000D+06 -.428408384323D-07 -.120933433212D+01  .372529029846D-07
     .982536691077D+00  .366781250000D+03  .107192950868D+01 -.835641950699D-08
    -.309655755548D-09  .100000000000D+01  .230000000000D+04  .000000000000D+00
     .240000000000D+01  .000000000000D+00  .186264514923D-08  .550000000000D+02
     .417600000000D+06  .400000000000D+01
7  24  2  8 22  0  0.0 -.573275610805D-04 -.909494701773D-11  .000000000000D+00
     .101000000000D+03  .310937500000D+02  .511271296502D-08 -.841241781211D-01
     .177882611752D-05  .179088573204D-01  .781193375587D-05  .515366186714D+04
     .424800000000D+06 -.763684511185D-07  .883220247680D+00  .292435288429D-06
     .950271839734D+00  .227093750000D+03 -.215255825972D+01 -.849785396973D-08
     .707886629177D-09  .100000000000D+01  .230000000000D+04  .000000000000D+00
     .240000000000D+01  .000000000000D+00 -.111758708954D-07  .101000000000D+03
     .417600000000D+06  .400000000000D+01
